satname,norad_id,inclination_deg,eccentricity,mean_motion_rev_per_day,perigee_km,apogee_km,l1,l2
STARLINK-1284,45390,53.0536,0.0001131,15.13305467,525.3469447366269,526.9086894382526,1 45390U 20019AG  26008.66671296  .01201181  00000+0  61073-1 0  9993,2 45390  53.0536  55.9682 0001131  66.9557 120.4472 15.13305467  5802
STARLINK-1297,45395,53.0547,5.91e-05,15.11370567,531.6108622888078,532.4276427578561,1 45395U 20019AM  26008.66671296  .01766179  00000+0  94208-1 0  9997,2 45395  53.0547  56.0311 0000591 133.9195 178.9181 15.11370567  5808
STARLINK-1307,45397,53.0537,0.0001624,15.15875506,517.2018931634339,519.4418630070359,1 45397U 20019AP  26008.66671296  .01624465  00000+0  77011-1 0  9993,2 45397  53.0537  55.9077 0001624  51.1950   5.8391 15.15875506  5745
STARLINK-1255,45399,53.0476,0.0005223,15.42313845,435.72152192355406,442.8429980825531,1 45399U 20019AR  26008.66671296  .00084387  00000+0  19167-2 0  9996,2 45399  53.0476  29.2184 0005223  41.4958  70.6509 15.42313845  5374
STARLINK-1260,45404,53.0544,0.000142,15.06376813,546.2992140787337,548.2660332518544,1 45404U 20019AW  26008.47394677 -.00007607  00000+0 -49263-3 0  9990,2 45404  53.0544  46.9352 0001420  83.2821 276.8330 15.06376813320789
STARLINK-1263,45405,53.0534,0.0001336,15.06396517,546.2970048586931,548.147460845712,1 45405U 20019AX  26008.39283350 -.00008043  00000+0 -52169-3 0  9991,2 45405  53.0534  47.3009 0001336  96.0986 264.0156 15.06396517320770
STARLINK-1265,45406,53.0539,0.0001533,15.06400491,546.1483973911636,548.2717087976434,1 45406U 20019AY  26008.40021499 -.00002117  00000+0 -12328-3 0  9997,2 45406  53.0539  47.2691 0001533  83.0630 277.0534 15.06400491320774
STARLINK-1278,45408,53.0498,0.0004196,15.44178357,430.93509192288366,436.65166389602564,1 45408U 20019BA  26008.41463968  .00028009  00000+0  60801-3 0  9996,2 45408  53.0498  59.4738 0004196 296.5075  63.5500 15.44178357320618
STARLINK-1296,45412,53.0547,0.0001478,15.06398247,546.193363325061,548.2404979469566,1 45412U 20019BE  26008.40390582 -.00001085  00000+0 -53985-4 0  9994,2 45412  53.0547  47.2512 0001478  91.9935 268.1224 15.06398247320778
STARLINK-1298,45413,53.0431,0.0006621,15.69388397,356.1854632314644,365.1089612853375,1 45413U 20019BF  26008.66671296  .00198366  00000+0  16232-2 0  9996,2 45413  53.0431 355.9141 0006621  88.5212   0.3111 15.69388397  5958
STARLINK-1309,45414,53.0542,0.0001251,15.06401071,546.341914785512,548.0746361734373,1 45414U 20019BG  26008.35229944  .00002220  00000+0  16788-3 0  9992,2 45414  53.0542  47.4849 0001251  93.3570 266.7562 15.06401071320757
STARLINK-1316,45415,53.0566,0.0001399,15.06403476,546.2320497465562,548.1697592922401,1 45415U 20019BH  26008.51080237 -.00000648  00000+0 -24620-4 0  9990,2 45415  53.0566  46.7709 0001399 101.5277 258.5869 15.06403476320817
STARLINK-1318,45416,53.0475,0.0005067,15.76115617,338.05361735042334,344.8632553656289,1 45416U 20019BJ  26008.66671296  .00196730  00000+0  12099-2 0  9999,2 45416  53.0475 343.8719 0005067  79.5205  54.8763 15.76115617  5982
STARLINK-1286,45417,53.0514,0.0001809,15.44371872,431.99215220615133,434.4565027344306,1 45417U 20019BK  26008.44213942  .00027934  00000+0  60257-3 0  9995,2 45417  53.0514  59.0438 0001809 329.1366  30.9533 15.44371872320895
STARLINK-1308,45419,53.0551,0.000125,15.15101383,519.8084361130814,521.5331380598527,1 45419U 20019BM  26008.66671296  .00084127  00000+0  44043-2 0  9992,2 45419  53.0551  75.9112 0001250  92.6144 292.1333 15.15101383  5740
STARLINK-1329,45531,53.0557,0.0005621,15.44876008,427.91458923804385,435.5702556847755,1 45531U 20025A   26008.28757968  .00182009  00000+0  37339-2 0  9991,2 45531  53.0557  11.1563 0005621  37.8875 322.2525 15.44876008316086
STARLINK-1338,45532,53.0546,0.0002542,15.42976072,435.59899145124564,439.06397562827806,1 45532U 20025B   26008.55756701  .00114437  00000+0  25297-2 0  9996,2 45532  53.0546  12.6955 0002542  69.3771 290.7507 15.42976072316089
STARLINK-1350,45535,53.0747,0.0002136,15.34440651,461.121241867706,464.0435972037312,1 45535U 20025E   26008.57451282  .00015832  00000+0  47808-3 0  9999,2 45535  53.0747 315.1039 0002136  95.9527 264.1718 15.34440651316924
STARLINK-1362,45538,53.0549,0.0001423,15.06401319,546.2220388716569,548.1929919207387,1 45538U 20025H   26008.42412219  .00000835  00000+0  74929-4 0  9995,2 45538  53.0549  16.8803 0001423  90.9172 269.1980 15.06401319316013
STARLINK-1368,45540,53.0547,0.0001465,15.06402254,546.1900872098367,548.2192123132181,1 45540U 20025K   26008.29608556 -.00002111  00000+0 -12284-3 0  9990,2 45540  53.0547  17.7357 0001465  93.0748 267.0409 15.06402254315984
STARLINK-1371,45542,53.0543,0.0001596,15.38098116,450.6436415825674,452.82373630647817,1 45542U 20025M   26008.66671296  .00057893  00000+0  15198-2 0  9995,2 45542  53.0543  14.2597 0001596  65.5788 155.9593 15.38098116  5802
STARLINK-1372,45543,53.0551,0.0001312,15.06397756,546.3098288504843,548.1270421167555,1 45543U 20025N   26008.30346756 -.00001364  00000+0 -72723-4 0  9990,2 45543  53.0551  17.7025 0001312  90.3668 269.7472 15.06397756315086
STARLINK-1373,45544,53.0546,0.0001446,15.33629104,464.0059483453524,465.9849822543174,1 45544U 20025P   26008.66671296  .01671716  00000+0  45896-1 0  9991,2 45544  53.0546  14.7277 0001446  94.6628 307.1643 15.33629104  5592
STARLINK-1294,45551,53.0398,0.0003746,15.74982799,342.1617620018451,347.1984965951151,1 45551U 20025W   26008.66671296  .00165923  00000+0  10770-2 0  9990,2 45551  53.0398 279.4054 0003746 169.3824 294.5204 15.74982799  5927
STARLINK-1325,45554,53.0435,0.0009134,15.90664749,294.32134122994194,306.52173196459717,1 45554U 20025Z   26008.66671296  .00389452  68011-4  12336-2 0  9999,2 45554  53.0435 268.1669 0009134 135.8090  53.4740 15.90664749  5959
STARLINK-1327,45555,53.0553,0.0001247,15.4239418,438.19543353493646,439.89563885946336,1 45555U 20025AA  26008.66671296  .00144128  00000+0  32339-2 0  9993,2 45555  53.0553 353.7539 0001247  91.3206 238.4903 15.42394180  5749
STARLINK-1356,45564,53.0585,0.0001204,15.06990229,544.5695872675278,546.2367757432339,1 45564U 20025AK  26008.43003616  .00072840  00000+0  47819-2 0  9993,2 45564  53.0585 357.1296 0001204  57.6791 302.4315 15.06990229316288
STARLINK-1357,45565,53.0599,0.0005146,15.44814517,428.41867481441386,435.42758870202033,1 45565U 20025AL  26008.59630467  .00150132  00000+0  31009-2 0  9996,2 45565  53.0599 326.0629 0005146  72.1491 288.0076 15.44814517316748
STARLINK-1361,45567,53.056,0.0001635,15.07336431,543.211192247415,545.4748432132119,1 45567U 20025AN  26008.44808611  .00120101  00000+0  77471-2 0  9996,2 45567  53.0560 357.0440 0001635  92.9030 267.2146 15.07336431316291
STARLINK-1363,45568,53.0514,0.0008443,15.53745372,400.07445221214766,411.52981183047996,1 45568U 20025AP  26008.31479257  .00041786  00000+0  64400-3 0  9993,2 45568  53.0514 335.1045 0008443  18.3801 341.7512 15.53745372316587
STARLINK-1366,45569,53.0507,0.0011126,15.5322207,399.77627586921244,414.8752876511844,1 45569U 20025AQ  26008.66671296  .00169821  00000+0  25999-2 0  9999,2 45569  53.0507 333.9970 0011126  45.6597 128.2240 15.53222070  5924
STARLINK-1376,45570,53.0955,0.000194,15.15752563,517.3568031361101,520.0327738700489,1 45570U 20025AR  26008.66671296  .01403586  00000+0  66680-1 0  9992,2 45570  53.0955 355.9153 0001940 100.5809 107.5738 15.15752563  5699
STARLINK-1320,45572,53.0542,0.0007241,15.55304392,396.35897658667363,406.17691082614965,1 45572U 20025AT  26008.47078866  .00041886  00000+0  61009-3 0  9999,2 45572  53.0542 279.9230 0007241 126.8893 233.2782 15.55304392317394
STARLINK-1321,45573,53.0551,0.0001286,15.38905462,448.466725345791,450.22275364919096,1 45573U 20025AU  26008.66671296  .00086803  00000+0  22063-2 0  9991,2 45573  53.0551 343.6190 0001286  84.2799 292.0330 15.38905462  5802
STARLINK-1328,45576,53.042,0.0002482,16.1288374,237.30186360114294,240.5865827203197,1 45576U 20025AX  26009.01696917  .01026911  67131-3  88297-3 0  9990,2 45576  53.0420 281.5524 0002482 224.5273 135.5563 16.12883740317404
STARLINK-1331,45578,53.0562,0.0001423,15.06423878,546.1529095879669,548.1238429600544,1 45578U 20025AZ  26008.34307618  .00000363  00000+0  43251-4 0  9996,2 45578  53.0562 347.5241 0001423  80.3396 279.7753 15.06423878316427
STARLINK-1333,45580,53.0796,7.18e-05,15.12497606,528.090183767381,529.0819892025993,1 45580U 20025BB  26008.66671296  .01480085  00000+0  76633-1 0  9991,2 45580  53.0796 356.0029 0000718  91.8400 226.2827 15.12497606  5743
STARLINK-1335,45581,53.0545,0.0001534,15.06381422,546.2061402144336,548.3308546210419,1 45581U 20025BC  26008.61952718  .00019776  00000+0  13434-2 0  9993,2 45581  53.0545 346.2845 0001534 101.7995 258.3166 15.06381422316456
STARLINK-1337,45582,53.0561,0.0001355,15.06859639,544.8649948079965,546.7413825991352,1 45582U 20025BD  26008.44238732  .00144278  00000+0  93915-2 0  9996,2 45582  53.0561 347.0788 0001355 162.2056 197.8981 15.06859639316420
STARLINK-1347,45586,53.0532,0.0005636,15.43372487,432.3238585775689,440.0049391143475,1 45586U 20025BH  26008.57794015  .00092384  00000+0  20220-2 0  9994,2 45586  53.0532 317.1120 0005636  84.0643 276.1004 15.43372487316855
STARLINK-1364,45589,53.0543,0.0001368,15.08415457,540.0948078205984,541.9878950175471,1 45589U 20025BL  26008.66671296  .01640185  00000+0  95506-1 0  9999,2 45589  53.0543 346.0688 0001368  80.7076  39.0861 15.08415457  5646
STARLINK-1365,45590,53.0559,0.0001515,15.0694078,544.50570150966,546.6035800768204,1 45590U 20025BM  26008.46138156  .00068902  00000+0  45330-2 0  9993,2 45590  53.0559  16.9859 0001515  59.1307 300.9831 15.06940780316023
STARLINK-1443,45660,53.0562,0.0001455,15.06399002,546.2069780060028,548.2222553264519,1 45660U 20035D   26008.31451821  .00001064  00000+0  90326-4 0  9996,2 45660  53.0562 337.6522 0001455  97.0138 263.1016 15.06399002309630
